{
    "links": {
        "self": "http://www.neowsapp.com/rest/v1/neo/3776110?api_key=iIulBulltgU6a56xZRHN4H3l9WmuAYTsLGpBGhQ2"
    },
    "id": "3776110",
    "neo_reference_id": "3776110",
    "name": "(2017 MJ7)",
    "designation": "2017 MJ7",
    "nasa_jpl_url": "http://ssd.jpl.nasa.gov/sbdb.cgi?sstr=3776110",
    "absolute_magnitude_h": 22.0,
    "estimated_diameter": {
        "kilometers": {
            "estimated_diameter_min": 0.1058168859,
            "estimated_diameter_max": 0.2366137501
        },
        "meters": {
            "estimated_diameter_min": 105.8168859331,
            "estimated_diameter_max": 236.6137501138
        },
        "miles": {
            "estimated_diameter_min": 0.0657515442,
            "estimated_diameter_max": 0.1470249225
        },
        "feet": {
            "estimated_diameter_min": 347.1682720448,
            "estimated_diameter_max": 776.2918559233
        }
    },
    "is_potentially_hazardous_asteroid": false,
    "close_approach_data": [
        {
            "close_approach_date": "2010-07-10",
            "close_approach_date_full": "2010-Jul-10 19:14",
            "epoch_date_close_approach": 1278789240000,
            "relative_velocity": {
                "kilometers_per_second": "22.115827812",
                "kilometers_per_hour": "79616.9801231766",
                "miles_per_hour": "49470.8952326483"
            },
            "miss_distance": {
                "astronomical": "0.4781871201",
                "lunar": "186.0147897189",
                "kilometers": "71535774.628394187",
                "miles": "44450269.1677143006"
            },
            "orbiting_body": "Earth"
        },
        {
            "close_approach_date": "2017-07-03",
            "close_approach_date_full": "2017-Jul-03 23:45",
            "epoch_date_close_approach": 1499125500000,
            "relative_velocity": {
                "kilometers_per_second": "19.8884313845",
                "kilometers_per_hour": "71598.3529842734",
                "miles_per_hour": "44488.4321640337"
            },
            "miss_distance": {
                "astronomical": "0.2126287491",
                "lunar": "82.7125833999",
                "kilometers": "31808807.966124417",
                "miles": "19765076.7513622746"
            },
            "orbiting_body": "Earth"
        },
        {
            "close_approach_date": "2024-06-27",
            "close_approach_date_full": "2024-Jun-27 06:48",
            "epoch_date_close_approach": 1719470880000,
            "relative_velocity": {
                "kilometers_per_second": "20.3082779216",
                "kilometers_per_hour": "73109.8005176869",
                "miles_per_hour": "45427.5868827816"
            },
            "miss_distance": {
                "astronomical": "0.2840614361",
                "lunar": "110.4998986429",
                "kilometers": "42494985.789701107",
                "miles": "26405159.7461929966"
            },
            "orbiting_body": "Earth"
        }
    ],
    "orbital_data": {
        "orbit_id": "5",
        "orbit_determination_date": "2017-07-19 06:20:04",
        "first_observation_date": "2017-06-26",
        "last_observation_date": "2017-07-19",
        "data_arc_in_days": 23,
        "observations_used": 45,
        "orbit_uncertainty": "7",
        "minimum_orbit_intersection": ".18111",
        "jupiter_tisserand_invariant": "3.842",
        "epoch_osculation": "2459000.5",
        "eccentricity": ".3156496882813569",
        "semi_major_axis": "1.749916484958127",
        "inclination": "37.88500778255975",
        "ascending_node_longitude": "99.9317757826082",
        "orbital_period": "845.5210232598342",
        "perihelion_distance": "1.197555891962687",
        "perihelion_argument": "179.2947141855921",
        "aphelion_distance": "2.302277077953568",
        "perihelion_time": "2458787.934316233964",
        "mean_anomaly": "90.50472318327775",
        "mean_motion": ".4257729732278574",
        "equinox": "J2000",
        "orbit_class": {
            "orbit_class_type": "AMO",
            "orbit_class_description": "Near-Earth asteroid orbits similar to that of 1221 Amor",
            "orbit_class_range": "1.017 AU < q (perihelion) < 1.3 AU"
        }
    },
    "is_sentry_object": false
}